27P/Crommelin,e,29.3390,250.6598,195.8685,9.181207,0.0354286,0.91890639,147.0539,12/04.0/2022,2000,g 12.0,8.0
# From MPEC 2022-WQ9
28P/Neujmin,e,14.3115,346.3366,347.4567,6.980479,0.0534412,0.77365590,33.7837,12/04.0/2022,2000,g  8.5,6.0
# From MPEC 2022-WQ9
29P/Schwassmann-Wachmann,e,9.3644,312.3938,50.8149,6.046707,0.0662866,0.04477187,87.8641,12/04.0/2022,2000,g  4.0,4.0
# From MPEC 2022-TA0
30P/Reinmuth,e,8.0705,117.6076,9.4793,3.728391,0.1369058,0.51664413,274.8668,12/04.0/2022,2000,g  9.5,6.0
# From MPEC 2021-F20
31P/Schwassmann-Wachmann,e,4.5482,114.1051,17.9215,4.235772,0.1130590,0.19227520,141.2701,12/04.0/2022,2000,g 13.1,4.0
# From MPEC 2022-K19
32P/ComasSola,e,9.9003,54.6684,54.8397,4.551019,0.1015175,0.55710598,308.8953,12/04.0/2022,2000,g  6.5,8.0
# From MPEC 2013-O31
33P/Daniel,e,22.2944,66.3014,20.4679,4.087861,0.1192504,0.45175521,275.4858,12/04.0/2022,2000,g 10.0,12.0
# From  15, 452
35P/Herschel-Rigollet,e,65.269,356.730,28.969,28.5480,0.006462,0.9743341,0.000,02/06.0831/2092,2000,g  9.0,4.0
# From MPEC 2022-ED3
36P/Whipple,e,9.9529,181.8408,201.0183,4.136748,0.1171427,0.26910255,107.2061,12/04.0/2022,2000,g  8.5,6.0
# From MPEC 2021-F20
37P/Forbes,e,8.9525,314.5671,330.1077,3.461567,0.1530365,0.53315754,256.3685,12/04.0/2022,2000,g 13.8,4.0
# From MPEC 2018-S50
38P/Stephan-Oterma,e,18.3871,77.9093,359.5017,11.23710,0.0261651,0.85938691,38.8096,12/04.0/2022,2000,g  3.5,12.0
# From MPEC 2022-A21
39P/Oterma,e,1.5441,297.7397,99.9955,7.296211,0.0500101,0.21735312,349.8535,12/04.0/2022,2000,g  7.0,6.0
# From MPC100283
40P/Vaisala,e,11.4661,133.7293,47.4022,4.954940,0.0893607,0.63042686,263.7049,12/04.0/2022,2000,g  5.5,12.0
# From MPC105240
41P/Tuttle-Giacobini-Kresak,e,9.2207,140.9883,62.2087,3.088038,0.1816269,0.65993256,14.8194,12/04.0/2022,2000,g 10.0,16.0
# From MPC 94283
42P/Neujmin,e,3.9912,150.1754,147.2312,4.873779,0.0916021,0.58471331,255.8052,12/04.0/2022,2000,g 13.0,6.0
# From MPEC 2022-C56
43P/Wolf-Harrington,e,9.3317,244.0374,224.0814,4.320022,0.1097679,0.43522428,252.8373,12/04.0/2022,2000,g  8.0,6.0
# From MPEC 2022-WQ9
44P/Reinmuth,e,5.8963,286.4321,58.0533,3.689832,0.1390574,0.42753259,31.2760,12/04.0/2022,2000,g  8.3,6.0
# From MPEC 2022-O01
45P/Honda-Mrkos-Pajdusakova,e,4.3228,87.6963,327.9158,3.055460,0.1845394,0.81764221,40.7907,12/04.0/2022,2000,g 13.5,8.0
# From MPEC 2021-O56
46P/Wirtanen,e,11.7488,82.1606,356.3263,3.091720,0.1813025,0.65866318,263.4454,12/04.0/2022,2000,g 14.0,6.0
# From MPEC 2022-HC2
47P/Ashbrook-Jackson,e,13.0409,356.9206,357.7383,4.122217,0.1177627,0.31871072,235.3851,12/04.0/2022,2000,g  1.0,11.2
# From MPEC 2021-F20
48P/Johnson,e,12.2013,110.0983,216.7330,3.501045,0.1504553,0.42721477,236.7326,12/04.0/2022,2000,g 12.4,4.0
# From MPEC 2021-F20
49P/Arend-Rigaux,e,19.0509,118.7922,332.9193,3.569503,0.1461479,0.59851427,234.4681,12/04.0/2022,2000,g 13.4,4.0
# From MPEC 2015-S97
50P/Arend,e,19.1007,355.1764,49.3409,4.087622,0.1192609,0.52957107,297.2839,12/04.0/2022,2000,g  9.5,6.0
# From MPEC 2022-UE6
51P/Harrington,e,5.4259,83.6653,269.2712,3.708569,0.1380049,0.54357765,8.7890,12/04.0/2022,2000,g 10.0,8.0
# From NK 3014
51P-A/Harrington,e,5.4259,83.6656,269.2444,3.709993,0.1379254,0.54377658,8.4306,12/04.0/2022,2000,g 10.0,8.0
# From MPEC 2022-WD2
51P-D/Harrington,e,5.4264,83.6531,269.2900,3.708941,0.1379841,0.54370907,8.7293,12/04.0/2022,2000,g 16.0,8.0
# From MPEC 2022-L66
52P/Harrington-Abell,e,10.2311,336.8325,139.5650,3.864014,0.1297616,0.54023286,55.1259,12/04.0/2022,2000,g 13.5,6.0
# From MPC100283
53P/Van Biesbroeck,e,6.6087,148.8176,134.5033,5.431631,0.0778590,0.55071196,187.6284,12/04.0/2022,2000,g  7.7,4.8
# From MPC 89011
54P/de Vico-Swift-NEAT,e,6.0645,358.8152,1.8713,3.788909,0.1336389,0.42645494,274.5128,12/04.0/2022,2000,g  9.0,4.0
# From MPC 31070
55P/Tempel-Tuttle,e,162.4964,235.4179,172.4747,10.35684,0.0295708,0.90542306,268.6270,12/04.0/2022,2000,g  9.0,4.0
# From MPC101100
56P/Slaughter-Burnham,e,8.1602,345.9869,44.0259,5.066372,0.0864288,0.50842883,200.9858,12/04.0/2022,2000,g  8.5,6.0
# From MPEC 2022-WQ9
57P/duToit-Neujmin-Delporte,e,2.8524,188.7759,115.1605,3.444358,0.1541848,0.50089398,63.6418,12/04.0/2022,2000,g 12.5,6.0
# From MPEC 2021-O56
58P/Jackson-Neujmin,e,13.1074,159.0748,200.5321,4.087887,0.1192493,0.66276730,109.7350,12/04.0/2022,2000,g 15.5,6.0
# From MPEC 2021-F20
59P/Kearns-Kwee,e,9.3434,312.7994,127.5095,4.483664,0.1038137,0.47601054,159.7374,12/04.0/2022,2000,g  7.0,6.0
# From MPEC 2021-F20
60P/Tsuchinshan,e,3.5808,267.4528,216.9852,3.525875,0.1488688,0.53360906,217.0683,12/04.0/2022,2000,g 11.5,6.0
# From MPEC 2022-WQ9
61P/Shajn-Schaldach,e,5.9995,162.9635,221.6526,3.690726,0.1390069,0.42401214,5.7285,12/04.0/2022,2000,g  6.0,10.0
# From MPC109147
62P/Tsuchinshan,e,4.7358,68.7169,47.3331,3.368482,0.1594237,0.62517367,298.4687,12/04.0/2022,2000,g  8.0,10.0
# From MPC 84320
63P/Wild,e,19.7267,358.0169,168.9891,5.612159,0.0741326,0.64961607,262.6249,12/04.0/2022,2000,g 10.5,6.0
# From MPEC 2021-F20
64P/Swift-Gehrels,e,8.9489,299.9229,97.1402,4.452633,0.1049008,0.68861556,156.2632,12/04.0/2022,2000,g 13.4,4.0
# From MPEC 2022-UE6
65P/Gunn,e,9.1759,61.9891,213.8887,3.888655,0.1285301,0.24854052,240.9706,12/04.0/2022,2000,g  5.0,6.0
# From MPEC 2021-F20
66P/duToit,e,18.6388,21.7787,257.4824,6.070169,0.0659026,0.78594866,109.4588,12/04.0/2022,2000,g 15.0,4.0
# From MPEC 2022-PB4
67P/Churyumov-Gerasimenko,e,3.8719,36.3289,22.1481,3.457042,0.1533370,0.64984325,60.8574,12/04.0/2022,2000,g 11.0,4.0
# From MPEC 2022-H04
68P/Klemola,e,11.1115,175.0454,153.2394,4.958604,0.0892617,0.63728404,100.0579,12/04.0/2022,2000,g 12.7,4.0
# From MPC114607
69P/Taylor,e,22.0443,104.8076,343.3916,3.884729,0.1287250,0.41377592,174.6217,12/04.0/2022,2000,g  9.5,12.0
# From MPEC 2022-P82
70P/Kojima,e,6.5978,119.2593,1.8026,3.677677,0.1397474,0.45388770,55.3301,12/04.0/2022,2000,g 11.0,6.0
# From MPEC 2022-M88
71P/Clark,e,9.4381,59.3935,209.0677,3.138430,0.1772701,0.49375329,351.1716,12/04.0/2022,2000,g  9.8,6.0
# From MPC 89011
72P/Denning-Fujikawa,e,10.9487,26.7015,346.7273,4.307637,0.1102416,0.81866318,338.6261,12/04.0/2022,2000,g 17.5,10.0
# From MPEC 2022-WQ9
73P/Schwassmann-Wachmann,e,11.2278,69.6076,199.4961,3.092717,0.1812149,0.68539753,18.1589,12/04.0/2022,2000,g 11.5,6.0
# From MPC106348
73P-T/Schwassmann-Wachmann,e,11.2298,69.6102,199.4765,3.094173,0.1810870,0.68559253,17.8897,12/04.0/2022,2000,g 11.5,6.0
# From MPEC 2022-P18
73P-U/Schwassmann-Wachmann,e,11.0695,70.6739,199.8824,2.876557,0.2020201,0.66612969,20.4275,12/04.0/2022,2000,g 19.0,4.0
# From MPEC 2022-P18
73P-V/Schwassmann-Wachmann,e,11.2464,69.4507,199.3316,3.168708,0.1747353,0.69236912,17.6552,12/04.0/2022,2000,g 19.0,4.0
# From MPEC 2022-R15
73P-W/Schwassmann-Wachmann,e,11.6019,67.3148,198.7367,4.591882,0.1001655,0.78211008,10.0705,12/04.0/2022,2000,g 18.2,4.0
# From MPEC 2022-R15
73P-X/Schwassmann-Wachmann,e,11.2557,69.5255,199.3790,3.096544,0.1808791,0.68550473,18.2116,12/04.0/2022,2000,g 17.6,4.0
# From MPEC 2022-R15
73P-Y/Schwassmann-Wachmann,e,11.1980,69.7649,199.4701,3.034602,0.1864453,0.68000439,18.9634,12/04.0/2022,2000,g 17.4,4.0
# From MPEC 2022-P18
73P-BU/Schwassmann-Wachmann,e,11.0695,70.6739,199.8824,2.876557,0.2020201,0.66612969,20.4275,12/04.0/2022,2000,g 19.0,4.0
# From MPEC 2022-P18
73P-BV/Schwassmann-Wachmann,e,11.2464,69.4507,199.3316,3.168708,0.1747353,0.69236912,17.6552,12/04.0/2022,2000,g 19.0,4.0
# From MPEC 2022-R15
73P-BW/Schwassmann-Wachmann,e,11.6019,67.3148,198.7367,4.591882,0.1001655,0.78211008,10.0705,12/04.0/2022,2000,g 18.2,4.0
# From MPEC 2022-WQ9
73P-BX/Schwassmann-Wachmann,e,11.2573,69.5066,199.3814,3.108253,0.1798579,0.68662933,18.1085,12/04.0/2022,2000,g 17.5,4.0
# From MPEC 2022-R15
73P-BY/Schwassmann-Wachmann,e,11.1980,69.7649,199.4701,3.034602,0.1864453,0.68000439,18.9634,12/04.0/2022,2000,g 17.4,4.0
# From MPEC 2022-UY9
74P/Smirnova-Chernykh,e,6.2817,55.4252,138.5047,4.603309,0.0997927,0.09041064,166.2891,12/04.0/2022,2000,g  5.0,6.0
# From MPEC 2022-K19
76P/West-Kohoutek-Ikemura,e,30.4798,84.1044,359.9344,3.470732,0.1524307,0.53866342,172.9606,12/04.0/2022,2000,g  8.0,12.0
# From MPEC 2022-WQ9
77P/Longmore,e,24.3190,14.7682,196.7441,3.623908,0.1428691,0.35188285,342.8329,12/04.0/2022,2000,g  7.0,8.0
# From MPEC 2021-O56
78P/Gehrels,e,6.2566,210.5172,192.6417,3.737126,0.1364261,0.46284536,182.8121,12/04.0/2022,2000,g  5.5,8.0
# From MPC 94675
79P/du Toit-Hartley,e,3.1486,280.5205,281.7862,2.943527,0.1951650,0.61909979,301.3755,12/04.0/2022,2000,g 16.0,4.0
# From MPEC 2014-P41
80P/Peters-Hartley,e,29.9230,259.7963,339.2469,4.023793,0.1221099,0.59855646,359.4060,12/04.0/2022,2000,g  9.0,4.0
# From MPEC 2022-WQ9
81P/Wild,e,3.2365,136.0986,41.6319,3.454213,0.1535255,0.53725022,358.2154,12/04.0/2022,2000,g  7.0,6.0
# From MPC133426
82P/Gehrels,e,1.1292,239.3199,226.3785,4.133441,0.1172834,0.12198319,190.6000,12/04.0/2022,2000,g 15.0,4.0
# From MPEC 2020-FB5
84P/Giclas,e,7.5502,108.1431,281.6251,3.549811,0.1473656,0.51606353,134.5043,12/04.0/2022,2000,g  9.5,8.0
# From MPEC 2022-QD9
86P/Wild,e,15.4739,72.3428,179.4924,3.602974,0.1441161,0.37238344,43.1176,12/04.0/2022,2000,g 11.0,6.0
# From MPEC 2020-SI8
87P/Bus,e,3.5437,181.7178,29.3064,3.482541,0.1516560,0.41858502,133.8509,12/04.0/2022,2000,g  7.2,10.0
# From MPEC 2022-ED3
88P/Howell,e,4.3822,56.6711,235.9372,3.106056,0.1800487,0.56374029,143.8077,12/04.0/2022,2000,g 11.0,6.0
# From MPC100283
89P/Russell,e,12.0715,41.3480,250.3989,3.753546,0.1355319,0.40816938,295.1433,12/04.0/2022,2000,g 11.5,6.0
# From MPEC 2022-K19
90P/Gehrels,e,9.6514,13.2056,29.0596,6.051117,0.0662141,0.51097403,131.8686,12/04.0/2022,2000,g  8.5,6.0
# From MPEC 2021-S45
91P/Russell,e,14.1733,246.7123,356.1010,3.903420,0.1278016,0.33426235,96.1256,12/04.0/2022,2000,g  7.5,6.0
# From MPEC 2014-J58
92P/Sanguin,e,19.5084,181.3615,163.8055,5.343034,0.0798035,0.66100436,225.7194,12/04.0/2022,2000,g 12.0,6.0
# From NK 2707
